{
  "type": "FeatureCollection",
  "features": [
    {"type":"Feature","properties":{"WADMKK":"KABUPATEN CILACAP"},"geometry":{"type":"Polygon","coordinates":[[[108.78,-7.42],[109.12,-7.45],[109.25,-7.72],[108.90,-7.75],[108.78,-7.42]]]}},
    {"type":"Feature","properties":{"WADMKK":"KABUPATEN BANYUMAS"},"geometry":{"type":"Polygon","coordinates":[[[108.98,-7.28],[109.32,-7.30],[109.35,-7.58],[109.05,-7.56],[108.98,-7.28]]]}},
    {"type":"Feature","properties":{"WADMKK":"KABUPATEN PURBALINGGA"},"geometry":{"type":"Polygon","coordinates":[[[109.28,-7.18],[109.52,-7.20],[109.48,-7.48],[109.26,-7.42],[109.28,-7.18]]]}},
    {"type":"Feature","properties":{"WADMKK":"KABUPATEN BANJARNEGARA"},"geometry":{"type":"Polygon","coordinates":[[[109.45,-7.18],[109.82,-7.22],[109.78,-7.52],[109.42,-7.48],[109.45,-7.18]]]}},
    {"type":"Feature","properties":{"WADMKK":"KABUPATEN KEBUMEN"},"geometry":{"type":"Polygon","coordinates":[[[109.42,-7.52],[109.82,-7.55],[109.78,-7.80],[109.38,-7.75],[109.42,-7.52]]]}},
    {"type":"Feature","properties":{"WADMKK":"KABUPATEN PURWOREJO"},"geometry":{"type":"Polygon","coordinates":[[[109.80,-7.55],[110.15,-7.58],[110.10,-7.85],[109.78,-7.80],[109.80,-7.55]]]}},
    {"type":"Feature","properties":{"WADMKK":"KABUPATEN WONOSOBO"},"geometry":{"type":"Polygon","coordinates":[[[109.82,-7.22],[110.05,-7.25],[110.02,-7.55],[109.78,-7.52],[109.82,-7.22]]]}},
    {"type":"Feature","properties":{"WADMKK":"KABUPATEN MAGELANG"},"geometry":{"type":"Polygon","coordinates":[[[110.05,-7.32],[110.42,-7.35],[110.38,-7.68],[110.02,-7.62],[110.05,-7.32]]]}},
    {"type":"Feature","properties":{"WADMKK":"KOTA MAGELANG"},"geometry":{"type":"Polygon","coordinates":[[[110.20,-7.45],[110.24,-7.45],[110.24,-7.49],[110.20,-7.49],[110.20,-7.45]]]}},
    {"type":"Feature","properties":{"WADMKK":"KABUPATEN BOYOLALI"},"geometry":{"type":"Polygon","coordinates":[[[110.42,-7.30],[110.78,-7.32],[110.75,-7.62],[110.38,-7.60],[110.42,-7.30]]]}},
    {"type":"Feature","properties":{"WADMKK":"KABUPATEN KLATEN"},"geometry":{"type":"Polygon","coordinates":[[[110.45,-7.55],[110.78,-7.58],[110.72,-7.82],[110.40,-7.78],[110.45,-7.55]]]}},
    {"type":"Feature","properties":{"WADMKK":"KABUPATEN SUKOHARJO"},"geometry":{"type":"Polygon","coordinates":[[[110.75,-7.58],[110.98,-7.60],[110.95,-7.85],[110.72,-7.82],[110.75,-7.58]]]}},
    {"type":"Feature","properties":{"WADMKK":"KOTA SURAKARTA"},"geometry":{"type":"Polygon","coordinates":[[[110.78,-7.52],[110.86,-7.52],[110.86,-7.58],[110.78,-7.58],[110.78,-7.52]]]}},
    {"type":"Feature","properties":{"WADMKK":"KABUPATEN WONOGIRI"},"geometry":{"type":"Polygon","coordinates":[[[110.82,-7.78],[111.25,-7.80],[111.20,-8.18],[110.78,-8.12],[110.82,-7.78]]]}},
    {"type":"Feature","properties":{"WADMKK":"KABUPATEN KARANGANYAR"},"geometry":{"type":"Polygon","coordinates":[[[110.85,-7.52],[111.22,-7.55],[111.20,-7.75],[110.82,-7.72],[110.85,-7.52]]]}},
    {"type":"Feature","properties":{"WADMKK":"KABUPATEN SRAGEN"},"geometry":{"type":"Polygon","coordinates":[[[110.82,-7.28],[111.22,-7.30],[111.20,-7.55],[110.80,-7.52],[110.82,-7.28]]]}},
    {"type":"Feature","properties":{"WADMKK":"KABUPATEN GROBOGAN"},"geometry":{"type":"Polygon","coordinates":[[[110.60,-6.92],[111.18,-6.95],[111.15,-7.30],[110.58,-7.28],[110.60,-6.92]]]}},
    {"type":"Feature","properties":{"WADMKK":"KABUPATEN BLORA"},"geometry":{"type":"Polygon","coordinates":[[[111.12,-6.82],[111.60,-6.85],[111.55,-7.32],[111.10,-7.28],[111.12,-6.82]]]}},
    {"type":"Feature","properties":{"WADMKK":"KABUPATEN REMBANG"},"geometry":{"type":"Polygon","coordinates":[[[111.12,-6.62],[111.68,-6.65],[111.62,-6.92],[111.10,-6.88],[111.12,-6.62]]]}},
    {"type":"Feature","properties":{"WADMKK":"KABUPATEN PATI"},"geometry":{"type":"Polygon","coordinates":[[[110.92,-6.55],[111.28,-6.58],[111.25,-6.95],[110.88,-6.92],[110.92,-6.55]]]}},
    {"type":"Feature","properties":{"WADMKK":"KABUPATEN KUDUS"},"geometry":{"type":"Polygon","coordinates":[[[110.78,-6.70],[110.95,-6.70],[110.92,-6.92],[110.75,-6.90],[110.78,-6.70]]]}},
    {"type":"Feature","properties":{"WADMKK":"KABUPATEN JEPARA"},"geometry":{"type":"Polygon","coordinates":[[[110.60,-6.42],[110.98,-6.45],[110.92,-6.75],[110.58,-6.72],[110.60,-6.42]]]}},
    {"type":"Feature","properties":{"WADMKK":"KABUPATEN DEMAK"},"geometry":{"type":"Polygon","coordinates":[[[110.45,-6.78],[110.82,-6.80],[110.78,-7.08],[110.42,-7.02],[110.45,-6.78]]]}},
    {"type":"Feature","properties":{"WADMKK":"KABUPATEN SEMARANG"},"geometry":{"type":"Polygon","coordinates":[[[110.32,-7.10],[110.62,-7.12],[110.58,-7.45],[110.28,-7.40],[110.32,-7.10]]]}},
    {"type":"Feature","properties":{"WADMKK":"KOTA SALATIGA"},"geometry":{"type":"Polygon","coordinates":[[[110.48,-7.31],[110.53,-7.31],[110.53,-7.36],[110.48,-7.36],[110.48,-7.31]]]}},
    {"type":"Feature","properties":{"WADMKK":"KOTA SEMARANG"},"geometry":{"type":"Polygon","coordinates":[[[110.30,-6.92],[110.50,-6.92],[110.50,-7.10],[110.30,-7.10],[110.30,-6.92]]]}},
    {"type":"Feature","properties":{"WADMKK":"KABUPATEN TEMANGGUNG"},"geometry":{"type":"Polygon","coordinates":[[[110.00,-7.12],[110.28,-7.15],[110.25,-7.40],[109.98,-7.38],[110.00,-7.12]]]}},
    {"type":"Feature","properties":{"WADMKK":"KABUPATEN KENDAL"},"geometry":{"type":"Polygon","coordinates":[[[109.95,-6.88],[110.32,-6.90],[110.28,-7.20],[109.92,-7.18],[109.95,-6.88]]]}},
    {"type":"Feature","properties":{"WADMKK":"KABUPATEN BATANG"},"geometry":{"type":"Polygon","coordinates":[[[109.70,-6.88],[110.02,-6.90],[109.98,-7.20],[109.68,-7.18],[109.70,-6.88]]]}},
    {"type":"Feature","properties":{"WADMKK":"KABUPATEN PEKALONGAN"},"geometry":{"type":"Polygon","coordinates":[[[109.50,-6.88],[109.75,-6.90],[109.72,-7.18],[109.48,-7.15],[109.50,-6.88]]]}},
    {"type":"Feature","properties":{"WADMKK":"KOTA PEKALONGAN"},"geometry":{"type":"Polygon","coordinates":[[[109.65,-6.85],[109.70,-6.85],[109.70,-6.91],[109.65,-6.91],[109.65,-6.85]]]}},
    {"type":"Feature","properties":{"WADMKK":"KABUPATEN PEMALANG"},"geometry":{"type":"Polygon","coordinates":[[[109.28,-6.82],[109.55,-6.85],[109.52,-7.22],[109.25,-7.18],[109.28,-6.82]]]}},
    {"type":"Feature","properties":{"WADMKK":"KABUPATEN TEGAL"},"geometry":{"type":"Polygon","coordinates":[[[109.02,-6.85],[109.30,-6.88],[109.28,-7.22],[109.00,-7.18],[109.02,-6.85]]]}},
    {"type":"Feature","properties":{"WADMKK":"KOTA TEGAL"},"geometry":{"type":"Polygon","coordinates":[[[109.10,-6.83],[109.16,-6.83],[109.16,-6.89],[109.10,-6.89],[109.10,-6.83]]]}},
    {"type":"Feature","properties":{"WADMKK":"KABUPATEN BREBES"},"geometry":{"type":"Polygon","coordinates":[[[108.72,-6.80],[109.08,-6.82],[109.05,-7.35],[108.70,-7.30],[108.72,-6.80]]]}}
  ]
}